[{"OBJECT_NAME":"KUIPER-00119","OBJECT_ID":"2025-171Z","EPOCH":"2026-03-05T14:04:24.108960","MEAN_MOTION":14.79989654,"ECCENTRICITY":0.0001057,"INCLINATION":51.9015,"RA_OF_ASC_NODE":181.3145,"ARG_OF_PERICENTER":141.5889,"MEAN_ANOMALY":218.5148,"EPHEMERIS_TYPE":0,"CLASSIFICATION_TYPE":"U","NORAD_CAT_ID":65155,"ELEMENT_SET_NO":999,"REV_AT_EPOCH":3220,"BSTAR":0.00088522,"MEAN_MOTION_DOT":6.543e-5,"MEAN_MOTION_DDOT":0},{"OBJECT_NAME":"KUIPER-00120","OBJECT_ID":"2025-217A","EPOCH":"2026-03-05T22:59:49.682688","MEAN_MOTION":14.79993945,"ECCENTRICITY":3.297e-5,"INCLINATION":51.8983,"RA_OF_ASC_NODE":69.5691,"ARG_OF_PERICENTER":105.8371,"MEAN_ANOMALY":254.2628,"EPHEMERIS_TYPE":0,"CLASSIFICATION_TYPE":"U","NORAD_CAT_ID":65762,"ELEMENT_SET_NO":999,"REV_AT_EPOCH":2418,"BSTAR":0.00040103351,"MEAN_MOTION_DOT":2.842e-5,"MEAN_MOTION_DDOT":0},{"OBJECT_NAME":"KUIPER-00132","OBJECT_ID":"2025-217B","EPOCH":"2026-03-05T20:29:18.644064","MEAN_MOTION":15.39619087,"ECCENTRICITY":0.00058658,"INCLINATION":51.8609,"RA_OF_ASC_NODE":22.1219,"ARG_OF_PERICENTER":331.3843,"MEAN_ANOMALY":28.6822,"EPHEMERIS_TYPE":0,"CLASSIFICATION_TYPE":"U","NORAD_CAT_ID":65763,"ELEMENT_SET_NO":999,"REV_AT_EPOCH":2483,"BSTAR":0.0017297341,"MEAN_MOTION_DOT":0.0006952,"MEAN_MOTION_DDOT":0},{"OBJECT_NAME":"KUIPER-00133","OBJECT_ID":"2025-217C","EPOCH":"2026-03-05T05:58:47.009280","MEAN_MOTION":14.799369,"ECCENTRICITY":0.0002059,"INCLINATION":51.9043,"RA_OF_ASC_NODE":72.7545,"ARG_OF_PERICENTER":15.9257,"MEAN_ANOMALY":344.177,"EPHEMERIS_TYPE":0,"CLASSIFICATION_TYPE":"U","NORAD_CAT_ID":65764,"ELEMENT_SET_NO":999,"REV_AT_EPOCH":2408,"BSTAR":-0.00017159,"MEAN_MOTION_DOT":-1.529e-5,"MEAN_MOTION_DDOT":0},{"OBJECT_NAME":"KUIPER-00139","OBJECT_ID":"2025-217D","EPOCH":"2026-03-05T23:34:55.250688","MEAN_MOTION":15.01816263,"ECCENTRICITY":0.00070707,"INCLINATION":51.8855,"RA_OF_ASC_NODE":50.7699,"ARG_OF_PERICENTER":307.8716,"MEAN_ANOMALY":52.1615,"EPHEMERIS_TYPE":0,"CLASSIFICATION_TYPE":"U","NORAD_CAT_ID":65765,"ELEMENT_SET_NO":999,"REV_AT_EPOCH":2445,"BSTAR":0.00075644139,"MEAN_MOTION_DOT":9.723e-5,"MEAN_MOTION_DDOT":0},{"OBJECT_NAME":"KUIPER-00142","OBJECT_ID":"2025-217E","EPOCH":"2026-03-05T23:27:09.935712","MEAN_MOTION":14.79918138,"ECCENTRICITY":0.0001416,"INCLINATION":51.9013,"RA_OF_ASC_NODE":52.0048,"ARG_OF_PERICENTER":111.4703,"MEAN_ANOMALY":248.641,"EPHEMERIS_TYPE":0,"CLASSIFICATION_TYPE":"U","NORAD_CAT_ID":65766,"ELEMENT_SET_NO":999,"REV_AT_EPOCH":2443,"BSTAR":-8.7941606e-5,"MEAN_MOTION_DOT":-8.91e-6,"MEAN_MOTION_DDOT":0},{"OBJECT_NAME":"KUIPER-00145","OBJECT_ID":"2025-217F","EPOCH":"2026-03-05T08:47:56.225472","MEAN_MOTION":14.79943314,"ECCENTRICITY":8.5e-5,"INCLINATION":51.8997,"RA_OF_ASC_NODE":57.2197,"ARG_OF_PERICENTER":83.1646,"MEAN_ANOMALY":276.9413,"EPHEMERIS_TYPE":0,"CLASSIFICATION_TYPE":"U","NORAD_CAT_ID":65767,"ELEMENT_SET_NO":999,"REV_AT_EPOCH":2430,"BSTAR":0.00078011,"MEAN_MOTION_DOT":5.732e-5,"MEAN_MOTION_DDOT":0},{"OBJECT_NAME":"KUIPER-00147","OBJECT_ID":"2025-217G","EPOCH":"2026-03-05T16:01:45.688224","MEAN_MOTION":14.79946357,"ECCENTRICITY":0.00012402,"INCLINATION":51.8974,"RA_OF_ASC_NODE":58.3821,"ARG_OF_PERICENTER":71.4369,"MEAN_ANOMALY":288.6728,"EPHEMERIS_TYPE":0,"CLASSIFICATION_TYPE":"U","NORAD_CAT_ID":65768,"ELEMENT_SET_NO":999,"REV_AT_EPOCH":2431,"BSTAR":0.00012384385,"MEAN_MOTION_DOT":7.23e-6,"MEAN_MOTION_DDOT":0},{"OBJECT_NAME":"KUIPER-00148","OBJECT_ID":"2025-217H","EPOCH":"2026-03-05T23:09:37.695168","MEAN_MOTION":15.09572701,"ECCENTRICITY":0.00083597,"INCLINATION":51.8782,"RA_OF_ASC_NODE":41.9143,"ARG_OF_PERICENTER":342.5675,"MEAN_ANOMALY":17.5011,"EPHEMERIS_TYPE":0,"CLASSIFICATION_TYPE":"U","NORAD_CAT_ID":65769,"ELEMENT_SET_NO":999,"REV_AT_EPOCH":2457,"BSTAR":9.3468844e-5,"MEAN_MOTION_DOT":1.226e-5,"MEAN_MOTION_DDOT":0},{"OBJECT_NAME":"KUIPER-00150","OBJECT_ID":"2025-217J","EPOCH":"2026-03-05T10:54:13.135680","MEAN_MOTION":14.80008603,"ECCENTRICITY":7.01e-5,"INCLINATION":51.9005,"RA_OF_ASC_NODE":69.3323,"ARG_OF_PERICENTER":49.2335,"MEAN_ANOMALY":310.8688,"EPHEMERIS_TYPE":0,"CLASSIFICATION_TYPE":"U","NORAD_CAT_ID":65770,"ELEMENT_SET_NO":999,"REV_AT_EPOCH":2414,"BSTAR":0.00076282,"MEAN_MOTION_DOT":5.609e-5,"MEAN_MOTION_DDOT":0},{"OBJECT_NAME":"KUIPER-00151","OBJECT_ID":"2025-217K","EPOCH":"2026-03-05T11:06:06.525792","MEAN_MOTION":14.79938169,"ECCENTRICITY":8.61e-5,"INCLINATION":51.9023,"RA_OF_ASC_NODE":61.7926,"ARG_OF_PERICENTER":47.5445,"MEAN_ANOMALY":312.559,"EPHEMERIS_TYPE":0,"CLASSIFICATION_TYPE":"U","NORAD_CAT_ID":65771,"ELEMENT_SET_NO":999,"REV_AT_EPOCH":2425,"BSTAR":-0.00056106,"MEAN_MOTION_DOT":-4.496e-5,"MEAN_MOTION_DDOT":0},{"OBJECT_NAME":"KUIPER-00152","OBJECT_ID":"2025-217L","EPOCH":"2026-03-05T23:34:50.047680","MEAN_MOTION":14.79946419,"ECCENTRICITY":7.031e-5,"INCLINATION":51.9005,"RA_OF_ASC_NODE":46.9866,"ARG_OF_PERICENTER":114.0079,"MEAN_ANOMALY":246.0957,"EPHEMERIS_TYPE":0,"CLASSIFICATION_TYPE":"U","NORAD_CAT_ID":65772,"ELEMENT_SET_NO":999,"REV_AT_EPOCH":2450,"BSTAR":-0.00020573927,"MEAN_MOTION_DOT":-1.79e-5,"MEAN_MOTION_DDOT":0},{"OBJECT_NAME":"KUIPER-00153","OBJECT_ID":"2025-217M","EPOCH":"2026-03-05T15:15:57.203136","MEAN_MOTION":15.13157862,"ECCENTRICITY":0.0010302,"INCLINATION":51.8805,"RA_OF_ASC_NODE":46.4134,"ARG_OF_PERICENTER":311.4382,"MEAN_ANOMALY":48.5709,"EPHEMERIS_TYPE":0,"CLASSIFICATION_TYPE":"U","NORAD_CAT_ID":65773,"ELEMENT_SET_NO":999,"REV_AT_EPOCH":2448,"BSTAR":0.0010485,"MEAN_MOTION_DOT":0.00018588,"MEAN_MOTION_DDOT":0},{"OBJECT_NAME":"KUIPER-00155","OBJECT_ID":"2025-217N","EPOCH":"2026-03-05T14:19:13.598688","MEAN_MOTION":15.23035957,"ECCENTRICITY":0.0005552,"INCLINATION":51.8784,"RA_OF_ASC_NODE":30.8773,"ARG_OF_PERICENTER":316.7439,"MEAN_ANOMALY":43.3105,"EPHEMERIS_TYPE":0,"CLASSIFICATION_TYPE":"U","NORAD_CAT_ID":65774,"ELEMENT_SET_NO":999,"REV_AT_EPOCH":2469,"BSTAR":0.00091638,"MEAN_MOTION_DOT":0.00021604,"MEAN_MOTION_DDOT":0},{"OBJECT_NAME":"KUIPER-00156","OBJECT_ID":"2025-217P","EPOCH":"2026-03-05T08:18:48.928896","MEAN_MOTION":14.79936911,"ECCENTRICITY":8.27e-5,"INCLINATION":51.9032,"RA_OF_ASC_NODE":44.8293,"ARG_OF_PERICENTER":84.7028,"MEAN_ANOMALY":275.4028,"EPHEMERIS_TYPE":0,"CLASSIFICATION_TYPE":"U","NORAD_CAT_ID":65775,"ELEMENT_SET_NO":999,"REV_AT_EPOCH":2447,"BSTAR":4.7177e-6,"MEAN_MOTION_DOT":-1.85e-6,"MEAN_MOTION_DDOT":0},{"OBJECT_NAME":"KUIPER-00158","OBJECT_ID":"2025-217Q","EPOCH":"2026-03-05T10:00:34.556832","MEAN_MOTION":14.80491942,"ECCENTRICITY":0.0001083,"INCLINATION":51.8966,"RA_OF_ASC_NODE":64.3735,"ARG_OF_PERICENTER":44.8091,"MEAN_ANOMALY":315.2959,"EPHEMERIS_TYPE":0,"CLASSIFICATION_TYPE":"U","NORAD_CAT_ID":65776,"ELEMENT_SET_NO":999,"REV_AT_EPOCH":2421,"BSTAR":0.00095287,"MEAN_MOTION_DOT":7.147e-5,"MEAN_MOTION_DDOT":0},{"OBJECT_NAME":"KUIPER-00163","OBJECT_ID":"2025-217R","EPOCH":"2026-03-05T22:00:01.999584","MEAN_MOTION":14.95860439,"ECCENTRICITY":0.0001765,"INCLINATION":51.8977,"RA_OF_ASC_NODE":63.9862,"ARG_OF_PERICENTER":46.5652,"MEAN_ANOMALY":104.1364,"EPHEMERIS_TYPE":0,"CLASSIFICATION_TYPE":"U","NORAD_CAT_ID":65777,"ELEMENT_SET_NO":999,"REV_AT_EPOCH":559,"BSTAR":0.0063069412,"MEAN_MOTION_DOT":0.00071728,"MEAN_MOTION_DDOT":0}]
